SatCatId,ObjectName,LaunchYear,OrbitalPeriod,LaunchMass,StatusCode,Inclination,Status,UcsData,OrbitClassEstimated,LaunchSiteCountry,Owner,UseType,Purpose,LaunchVehicleClass,TLE1,TLE2,MeanMotion,Eccentricity,OrbitClass
52686,STARLINK-4005,2022,95.44,260.0,+,53.22,Active,1,LEO,USA,USA,Commercial,Communications,Falcon,1 52686U 22053AG  25170.19749578  .00000798  00000+0  68218-4 0  9996,2 52686  53.2171 247.2657 0001182  85.8242 274.2886 15.08835327171347,15.08835327,0.0001182,LEO
52687,STARLINK-3981,2022,95.44,260.0,+,53.22,Active,1,LEO,USA,USA,Commercial,Communications,Falcon,1 52687U 22053AH  25170.48721857 -.00000472  00000+0 -11543-4 0  9999,2 52687  53.2159 245.6822 0001139  92.9324 267.1799 15.08841114171381,15.08841114,0.0001139,LEO
52688,STARLINK-4032,2022,95.44,260.0,+,53.22,Active,1,LEO,USA,USA,Commercial,Communications,Falcon,1 52688U 22053AJ  25170.48352928 -.00000727  00000+0 -27601-4 0  9994,2 52688  53.2164 245.5820 0001214  89.6053 270.5079 15.08838984171381,15.08838984,0.0001214,LEO
52689,STARLINK-4078,2022,94.34,260.0,P,53.22,Active,1,LEO,USA,USA,Commercial,Communications,Falcon,1 52689U 22053AK  25170.91668981  .00029214  00000+0  11094-2 0  9999,2 52689  53.2215 238.7147 0000714  79.8085 233.8291 15.26616066171153,15.26616066,7.14e-05,LEO
52690,STARLINK-4035,2022,95.44,260.0,+,53.22,Active,1,LEO,USA,USA,Commercial,Communications,Falcon,1 52690U 22053AL  25170.49458290 -.00000943  00000+0 -41203-4 0  9991,2 52690  53.2171 245.6480 0001228  90.2820 269.8313 15.08835846171016,15.08835846,0.0001228,LEO
52692,STARLINK-3993,2022,95.44,260.0,+,53.22,Active,1,LEO,USA,USA,Commercial,Communications,Falcon,1 52692U 22053AN  25169.53039270 -.00000005  00000+0  17796-4 0  9997,2 52692  53.2184 249.7118 0001393  98.0449 262.0701 15.08841116171272,15.08841116,0.0001393,LEO
52693,STARLINK-3946,2022,95.44,260.0,+,53.22,Active,1,LEO,USA,USA,Commercial,Communications,Falcon,1 52693U 22053AP  25170.20018521  .00000315  00000+0  37891-4 0  9991,2 52693  53.2182 246.9739 0001356  83.9187 276.1960 15.08839482171377,15.08839482,0.0001356,LEO
52694,STARLINK-4072,2022,95.44,260.0,+,53.22,Active,1,LEO,USA,USA,Commercial,Communications,Falcon,1 52694U 22053AQ  25170.47986195  .00001731  00000+0  12679-3 0  9991,2 52694  53.2168 245.7161 0001104  88.9624 271.1494 15.08854702171414,15.08854702,0.0001104,LEO
52695,STARLINK-4041,2022,95.44,260.0,+,53.22,Active,1,LEO,USA,USA,Commercial,Communications,Falcon,1 52695U 22053AR  25170.51801601  .00000234  00000+0  32765-4 0  9991,2 52695  53.2172 250.3424 0001232  87.3637 272.7497 15.08837496171368,15.08837496,0.0001232,LEO
52697,STARLINK-4018,2022,95.44,260.0,+,53.22,Active,1,LEO,USA,USA,Commercial,Communications,Falcon,1 52697U 22053AT  25170.21358122 -.00000428  00000+0 -88219-5 0  9998,2 52697  53.2170 251.9127 0001190  82.2044 277.9084 15.08829362171311,15.08829362,0.000119,LEO
52698,STARLINK-4030,2022,95.44,260.0,+,53.22,Active,1,LEO,USA,USA,Commercial,Communications,Falcon,1 52698U 22053AU  25170.48859954  .00000940  00000+0  77113-4 0  9994,2 52698  53.2163 250.6654 0001140  82.2153 277.8969 15.08838277171340,15.08838277,0.000114,LEO
52699,STARLINK-3987,2022,95.44,260.0,+,53.22,Active,1,LEO,USA,USA,Commercial,Communications,Falcon,1 52699U 22053AV  25170.20248137  .00001108  00000+0  87706-4 0  9996,2 52699  53.2167 241.9896 0001123  79.2237 280.8881 15.08833294171460,15.08833294,0.0001123,LEO
52700,STARLINK-4034,2022,95.44,260.0,+,53.22,Active,1,LEO,USA,USA,Commercial,Communications,Falcon,1 52700U 22053AW  25170.51431991 -.00000412  00000+0 -78204-5 0  9998,2 52700  53.2170 250.2031 0001303  90.8872 269.2270 15.08834550171363,15.0883455,0.0001303,LEO
52702,STARLINK-4033,2022,95.44,260.0,+,53.22,Active,1,LEO,USA,USA,Commercial,Communications,Falcon,1 52702U 22053AY  25170.21260354 -.00001473  00000+0 -74529-4 0  9993,2 52702  53.2167 251.9452 0001402  91.6942 268.4211 15.08827285171311,15.08827285,0.0001402,LEO
52703,STARLINK-4020,2022,95.44,260.0,+,53.22,Active,1,LEO,USA,USA,Commercial,Communications,Falcon,1 52703U 22053AZ  25170.43662562  .00001796  00000+0  13091-3 0  9997,2 52703  53.2167 235.9258 0001230  87.6542 272.4590 15.08834743170296,15.08834743,0.000123,LEO
52704,STARLINK-3999,2022,95.44,260.0,+,53.22,Active,1,LEO,USA,USA,Commercial,Communications,Falcon,1 52704U 22053BA  25170.45134147 -.00000092  00000+0  12332-4 0  9990,2 52704  53.2169 235.8452 0001250  87.2243 272.8892 15.08840302171579,15.08840302,0.000125,LEO
52705,STARLINK-3844,2022,95.44,260.0,+,53.22,Active,1,LEO,USA,USA,Commercial,Communications,Falcon,1 52705U 22053BB  25170.44030361  .00000162  00000+0  28287-4 0  9996,2 52705  53.2163 235.8950 0001187  87.6319 272.4809 15.08838491171574,15.08838491,0.0001187,LEO
52706,STARLINK-3970,2022,95.44,260.0,+,53.22,Active,1,LEO,USA,USA,Commercial,Communications,Falcon,1 52706U 22053BC  25170.44398290  .00000584  00000+0  54731-4 0  9996,2 52706  53.2164 235.8795 0000777  82.1710 277.9371 15.08841464171570,15.08841464,7.77e-05,LEO
52707,STARLINK-4007,2022,95.44,260.0,+,53.22,Active,1,LEO,USA,USA,Commercial,Communications,Falcon,1 52707U 22053BD  25170.35566027  .00001277  00000+0  98332-4 0  9997,2 52707  53.2180 236.1596 0001471  86.2681 273.8480 15.08838783171145,15.08838783,0.0001471,LEO
52708,STARLINK-3962,2022,95.44,260.0,+,53.22,Active,1,LEO,USA,USA,Commercial,Communications,Falcon,1 52708U 22053BE  25170.46605809 -.00000334  00000+0 -28870-5 0  9998,2 52708  53.2161 235.7648 0001185  92.6007 267.5121 15.08839040171782,15.0883904,0.0001185,LEO
52713,COSMOS 2556,2022,94.53,3700.0,+,97.59,Active,1,LEO,Russia,Russia/USSR,Military,Earth Observation,Soyuz,1 52713U 22054A   25170.87057232  .00003337  00000+0  14339-3 0  9998,2 52713  97.5887 109.8055 0002434  66.7356 293.4136 15.23385170171527,15.2338517,0.0002434,LEO
52717,OBJECT B,2022,108.31,-1.0,+,86.01,Active,0,LEO,PRC,China,Unknown,Unknown,Unknown,1 52717U 22056B   25170.55363955  .00000037  00000+0  47443-4 0  9998,2 52717  86.0060 239.6001 0042927 308.5379  51.1913 13.29578208150128,13.29578208,0.0042927,LEO
52737,GHGSAT-C3,2022,94.22,-1.0,+,97.61,Active,0,LEO,USA,Canada,Unknown,Unknown,Unknown,1 52737U 22057F   25170.84325751  .00004733  00000+0  17418-3 0  9990,2 52737  97.6131 300.7757 0005848 333.4580  26.6358 15.28358666170089,15.28358666,0.0005848,LEO
52739,CONNECTA T1.1,2022,92.67,-1.0,+,97.61,Active,0,LEO,USA,Turkey,Unknown,Unknown,Unknown,1 52739U 22057H   25170.80002793  .00030441  00000+0  47063-3 0  9990,2 52739  97.6115 311.1415 0003553 288.0912  71.9953 15.54038834170710,15.54038834,0.0003553,LEO
52744,GHGSAT-C5,2022,94.22,-1.0,+,97.62,Active,0,LEO,USA,Canada,Unknown,Unknown,Unknown,1 52744U 22057N   25170.81301553  .00004564  00000+0  16780-3 0  9992,2 52744  97.6217 301.8973 0006763 328.2791  31.8040 15.28409860170086,15.2840986,0.0006763,LEO
52746,GHGSAT-C4,2022,94.22,-1.0,+,97.61,Active,0,LEO,USA,Canada,Unknown,Unknown,Unknown,1 52746U 22057Q   25170.79629540  .00004631  00000+0  17040-3 0  9995,2 52746  97.6061 299.9160 0005796 316.5167  43.5615 15.28374026170085,15.28374026,0.0005796,LEO
52747,NUSAT-28 (ALICE LEE),2022,93.19,42.0,+,97.49,Active,1,LEO,USA,Argentina,Commercial,Earth Observation,Falcon,1 52747U 22057R   25170.84020543  .00022644  00000+0  47590-3 0  9997,2 52747  97.4923 300.5191 0006176 197.1767 162.9273 15.45324996171049,15.45324996,0.0006176,LEO
52752,NUSAT-31 (RUBY PAYNE-S),2022,93.17,42.0,+,97.63,Active,1,LEO,USA,Argentina,Commercial,Earth Observation,Falcon,1 52752U 22057W   25170.82971776  .00020995  00000+0  43898-3 0  9998,2 52752  97.6339 315.3937 0002999 227.6236 132.4758 15.45509910170993,15.4550991,0.0002999,LEO
52754,HAWK-5C,2022,93.67,-1.0,+,97.62,Active,0,LEO,USA,USA,Unknown,Unknown,Unknown,1 52754U 22057Y   25170.34518951  .00009975  00000+0  27576-3 0  9999,2 52754  97.6177 306.9621 0004906 300.4510  59.6249 15.37232511170363,15.37232511,0.0004906,LEO
52756,HAWK-5B,2022,93.67,-1.0,+,97.62,Active,0,LEO,USA,USA,Unknown,Unknown,Unknown,1 52756U 22057AA  25170.34502442  .00009926  00000+0  27442-3 0  9997,2 52756  97.6161 305.3603 0005155 293.2125  66.8575 15.37231179170360,15.37231179,0.0005155,LEO
52757,HAWK-5A,2022,93.67,-1.0,+,97.62,Active,0,LEO,USA,USA,Unknown,Unknown,Unknown,1 52757U 22057AB  25170.34478759  .00010126  00000+0  27986-3 0  9998,2 52757  97.6169 306.1586 0005519 296.2483  63.8193 15.37234890170368,15.3723489,0.0005519,LEO
52759,ICEYE-X20,2022,91.5,80.0,+,97.6,Active,1,LEO,USA,Finland,Commercial,Earth Observation,Falcon,1 52759U 22057AD  25170.84323585  .00047009  00000+0  33357-3 0  9990,2 52759  97.5969 326.6660 0004467 197.6023 162.5087 15.73794730171782,15.7379473,0.0004467,LEO
52760,VIGORIDE-3,2022,94.56,-1.0,+,97.61,Active,0,LEO,USA,USA,Unknown,Unknown,Unknown,1 52760U 22057AE  25170.60146281  .00002786  00000+0  12198-3 0  9995,2 52760  97.6142 298.4724 0008565 319.7526  40.3075 15.22882408169908,15.22882408,0.0008565,LEO
52761,ION SCV-006,2022,93.78,-1.0,+,97.57,Active,0,LEO,USA,Italy,Unknown,Unknown,Unknown,1 52761U 22057AF  25170.32339396  .00007417  00000+0  21596-3 0  9994,2 52761  97.5655 300.5218 0021170 340.9839  19.0611 15.35495688170264,15.35495688,0.002117,LEO
52762,ICEYE-X17,2022,91.25,80.0,+,97.58,Active,1,LEO,USA,USA,Commercial,Earth Observation,Falcon,1 52762U 22057AG  25170.85396785  .00155955  00000+0  89396-3 0  9991,2 52762  97.5837 316.4918 0009888 236.3365 123.6959 15.78299372171159,15.78299372,0.0009888,LEO
52763,SHERPA-AC1,2022,94.14,-1.0,+,97.62,Active,0,LEO,USA,USA,Unknown,Unknown,Unknown,1 52763U 22057AH  25170.76667201  .00005092  00000+0  18042-3 0  9992,2 52763  97.6206 302.9966 0007456 300.6151  59.4353 15.29559744170185,15.29559744,0.0007456,LEO
52764,NUSAT-29 (EDITH CLARKE),2022,92.66,42.0,+,97.49,Active,1,LEO,USA,Argentina,Commercial,Earth Observation,Falcon,1 52764U 22057AJ  25170.79226293  .00034475  00000+0  53185-3 0  9992,2 52764  97.4897 302.9688 0005820 150.6068 209.5513 15.54060040171286,15.5406004,0.000582,LEO
